#cP2015  5 24  0  0  0.00000000      96 ORBIT IGb08 HLM  IGS
## 1846      0.00000000   900.00000000 57166 0.0000000000000
+   32   G01G02G03G04G05G06G07G08G09G10G11G12G13G14G15G16G17
+        G18G19G20G21G22G23G24G25G26G27G28G29G30G31G32  0  0
+          0  0  0  0  0  0  0  0  0  0  0  0  0  0  0  0  0
+          0  0  0  0  0  0  0  0  0  0  0  0  0  0  0  0  0
+          0  0  0  0  0  0  0  0  0  0  0  0  0  0  0  0  0
++         2  3  2  2  2  2  2  0  2  2  2  2  2  2  2  2  2
++         2  2  2  2  2  2  2  2  3  2  2  3  2  2  2  0  0
++         0  0  0  0  0  0  0  0  0  0  0  0  0  0  0  0  0
++         0  0  0  0  0  0  0  0  0  0  0  0  0  0  0  0  0
++         0  0  0  0  0  0  0  0  0  0  0  0  0  0  0  0  0
%c G  cc GPS ccc cccc cccc cccc cccc ccccc ccccc ccccc ccccc
%c cc cc ccc ccc cccc cccc cccc cccc ccccc ccccc ccccc ccccc
%f  1.2500000  1.025000000  0.00000000000  0.000000000000000
%f  0.0000000  0.000000000  0.00000000000  0.000000000000000
%i    0    0    0    0      0      0      0      0         0
%i    0    0    0    0      0      0      0      0         0
/* RAPID ORBIT COMBINATION FROM WEIGHTED AVERAGE OF:        
/* cod emr esa gfz jpl ngs sio usn whu                      
/* REFERENCED TO IGS TIME (IGST) AND TO WEIGHTED MEAN POLE: 
/* PCV:IGS08_1844 OL/AL:FES2004  NONE     Y  ORB:CMB CLK:CMB
*  2015  5 24 21 45  0.00000000
PG01  13406.495065 -18775.009830  12939.018477     -5.175111  6  5  4  85       
PG02 -15108.634359  -3396.841313 -21213.663898    567.853823  7  9  6 119       
PG03  20669.247460 -13697.464377  -9556.383815    335.266858  7  4  8 112       
PG04  15764.439972  -9921.140816  18511.275766    -16.075578  5  3  5  84       
PG05 -25152.362577   1690.473540  -8703.226521   -237.618111  8  9  3  82       
PG06  -8351.609657 -18422.317293 -17216.797549    168.486475 10  9  7 127       
PG07   6105.697288 -25637.751359    113.573916    464.297545  4  6  5  94       
PG08  13831.605273  10139.578593 -20538.106660 999999.999999
PG09   1405.075713 -17539.365666 -19895.001122   -161.141176  6  8  4 110       
PG10 -11682.627871 -12302.997524 -20907.409930   -176.235747  8  8  5 108       
PG11  12587.402661 -14393.731743  17859.392667   -580.429489  6  4  6  92       
PG12 -22817.352474  11211.267261  -7379.798306    295.692496  7  7  5  84       
PG13 -20606.357696  -9161.033254  13790.264645   -117.324842  6  7  2 124       
PG14  14087.988775  21645.197474   6780.659034     61.078591  8  7  4 126       
PG15 -18144.348535   3399.202568  19112.720352   -251.097147  8  7  9 112       
PG16  25131.430777    -69.230958  -9236.073810   -125.883966  8  9  8  78       
PG17 -14361.002014 -21314.307274   7412.577564   -172.726051  9  9  7 111       
PG18  -2238.859731  17170.731436  20574.352732    403.998772  4  6  6  99       
PG19  18815.629684   1593.545864  18674.911883   -511.401545  5  6  4 123       
PG20 -25441.509474   6239.296647  -4983.625953    323.092319  8 10  2  91       
PG21  -2899.362547  26098.906545   3006.426710   -449.091691  7  6  7 112       
PG22  10699.541843  12988.263667  20812.381263    353.752183  5  6  5  87       
PG23  11740.415283 -10099.564046 -21447.050797   -110.471726  7  7  6 103       
PG24 -14201.882442  16475.853476  15103.694570    -48.821687  8  4  6  92       
PG25 -12488.906649  16086.616342 -17056.564400    -32.554472  7  8  7  97       
PG26  19072.210678   6533.807691 -17302.177248     30.575650 10  8  9 106       
PG27  22191.344785   9951.756730  10797.122119     74.275630  8  6  7 131       
PG28  -5012.037159 -14070.592214  22586.568809    442.090115  9  7  6 134       
PG29  -3801.996875  16171.400628 -20713.692651    612.515130  6  6  7 106       
PG30   -666.697315 -24298.103775  10616.633264    -54.813693  7  6  5  97       
PG31   9693.087040  15162.665880 -19288.372380    314.953627  9  6  7 105       
PG32  25811.140053  -3960.599461   2804.485255   -142.887081  8  7  3 111       
*  2015  5 24 22  0  0.00000000
PG01  13309.453121 -17144.603027  15126.940487     -5.174674  6  5  4  87       
PG02 -14729.545028  -5865.261259 -20984.590123    567.856243  8  9  6 122       
PG03  21638.127187 -13791.663056  -6919.382130    335.275063  7  3  8  85       
PG04  15549.007064  -7661.393359  19730.424165    -16.077197  5  3  5  80       
PG05 -24177.665639   1067.900451 -11200.926073   -237.613891  8  9  2  98       
PG06  -7859.233205 -20225.272994 -15321.508783    168.494639 10  9  8 130       
PG07   6324.415139 -25424.035635  -2777.806724    464.299695  3  6  5  98       
PG08  11616.791050  10935.771598 -21468.268058 999999.999999
PG09   3249.785226 -16108.994359 -20867.081381   -161.146394  6  8  5 102       
PG10  -9482.361532 -13118.688364 -21489.950137   -176.237072  8  8  5 116       
PG11  13156.635499 -12219.316905  19010.726829   -580.431703  6  4  6 106       
PG12 -23514.534357  11236.071371  -4562.610297    295.695387  7  7  6  81       
PG13 -21476.613238 -10355.431571  11429.847366   -117.328361  5  7  3 123       
PG14  13307.448614  21163.446138   9436.731879     61.076348  8  7  4 122       
PG15 -19734.694808   1984.872482  17719.568342   -251.098985  9  6  9  99       
PG16  24033.319234    373.788345 -11784.260560   -125.880509  9  9  8  81       
PG17 -13535.833724 -20799.345313  10044.961075   -172.727423  9  8  7 104       
PG18  -4359.720410  17840.850716  19590.506748    404.001432  4  5  5 100       
PG19  20175.190339   3146.164705  17043.977439   -511.402759  5  5  5 125       
PG20 -24930.742036   5657.035346  -7636.718211    323.095165  8 10  2 101       
PG21  -3271.015010  26150.530650    192.195494   -449.094891  6  5  6 111       
PG22   8501.150308  13874.516008  21238.952359    353.755671  5  5  5  82       
PG23  13600.617228  -8481.579353 -21087.547028   -110.473919  7  7  6 103       
PG24 -14092.750034  14618.263080  17007.020751    -48.822123  8  4  5 107       
PG25 -14256.128032  16563.868698 -15074.094138    -32.558021  7  8  7 107       
PG26  17174.764011   7370.377694 -18881.696076     30.576224 11  9  9 104       
PG27  22890.538757  10807.817087   8220.177060     74.278092  8  6  7 131       
PG28  -2661.101735 -14725.867806  22560.005813    442.092443  8  6  6 132       
PG29  -5596.941088  14555.247768 -21485.358039    612.516917  5  6  7  99       
PG30   -157.962086 -25273.633728   8045.499543    -54.808566  7  7  6 103       
PG31   9110.967548  17237.288314 -17749.850875    314.952505  9  5  7 109       
PG32  25422.003755  -3513.014430   5608.306125   -142.878572  8  7  3 113       
*  2015  5 24 22 15  0.00000000
PG01  13267.335890 -15279.891474  17051.454484     -5.174224  6  5  4  80       
PG02 -14474.507902  -8296.571961 -20383.660289    567.858201  9  9  6 114       
PG03  22320.075136 -13816.459354  -4163.501543    335.283214  7  2  8 101       
PG04  15428.708901  -5276.024984  20598.453185    -16.078372  5  3  5  60       
PG05 -22987.449506    289.458375 -13508.163791   -237.609995  7  8  2  98       
PG06  -7488.829486 -21823.558102 -13162.622753    168.502791 10  9  8 121       
PG07   6507.342821 -24897.205497  -5620.194469    464.301922  3  7  4  99       
PG08   9370.890452  11887.702764 -22036.711529 999999.999999
PG09   5237.642945 -14722.319994 -21480.142805   -161.151550  6  7  5 110       
PG10  -7281.370767 -14062.604710 -21716.676998   -176.239144  8  8  5 113       
PG11  13836.446041  -9959.010830  19819.332241   -580.433950  6  4  6 104       
PG12 -23904.666024  11184.798849  -1665.989834    295.698413  8  7  6  99       
PG13 -22205.306078 -11308.439137   8870.044847   -117.331072  6  7  4 155       
PG14  12285.853807  20533.046662  11933.318477     61.073447  8  6  4 125       
PG15 -21245.523826    748.823275  16022.728268   -251.100799  9  6  9  99       
PG16  22702.514450    971.756284 -14134.339386   -125.877253  9 10  8  85       
PG17 -12464.492305 -20148.519902  12508.538698   -172.729152  9  7  7 101       
PG18  -6335.336089  18559.507672  18280.451243    404.003576  6  5  5 103       
PG19  21465.395526   4484.221534  15120.948642   -511.403596  6  5  5 117       
PG20 -24190.066841   4920.682228 -10160.154740    323.098727  7  9  2  94       
PG21  -3612.051438  25900.268015  -2625.351897   -449.098083  5  5  6 109       
PG22   6320.030440  14874.450307  21307.995833    353.759227  5  3  5  87       
PG23  15486.906102  -6998.968380 -20362.208615   -110.476098  7  7  7 113       
PG24 -14056.769311  12560.051064  18615.242576    -48.822469  8  5  5 106       
PG25 -15775.873056  17042.640711 -12831.880407    -32.561609  7  8  8 116       
PG26  15176.073242   8367.840412 -20136.555968     30.576805 12  9  9 119       
PG27  23394.401889  11446.211055   5502.617960     74.280542  9  7  7 130       
PG28   -372.916044 -15509.790766  22166.806924    442.094554  8  6  6 131       
PG29  -7528.136707  12995.517267 -21886.827656    612.519165  6  7  7  93       
PG30    242.265244 -25980.324624   5335.325618    -54.803475  6  7  5 100       
PG31   8669.643925  19149.757346 -15899.130728    314.951288  8  4  8 113       
PG32  24755.973260  -2948.620640   8312.373228   -142.869942  9  6  4 116       
EOF
